{"type": "FeatureCollection", "features": [ {"type": "Feature", "properties": {"norad_id": 43262, "name": "GAOFEN-1 04", "group": "resource", "lat": 67.7274620758764, "lon": -116.66096565650203, "alt_km": 633.5211097337815, "timestamp": "2025-12-11T05:00:25.968671+00:00", "meta": {"OBJECT_NAME": "GAOFEN-1 04", "OBJECT_ID": "2018-031D", "EPOCH": "2025-12-10T23:37:40.035360", "MEAN_MOTION": 14.76442007, "ECCENTRICITY": 0.00011172, "INCLINATION": 98.0805, "RA_OF_ASC_NODE": 42.8186, "ARG_OF_PERICENTER": 57.4387, "MEAN_ANOMALY": 302.693, "EPHEMERIS_TYPE": 0, "CLASSIFICATION_TYPE": "U", "NORAD_CAT_ID": 43262, "ELEMENT_SET_NO": 999, "REV_AT_EPOCH": 41491, "BSTAR": 0.00015876411, "MEAN_MOTION_DOT": 1.052e-05, "MEAN_MOTION_DDOT": 0}, "tle": {"line1": "1 43262U 18031D   25344.98449115  .00001052  00000+0  15876-3 0  9996", "line2": "2 43262  98.0805  42.8186 0001117  57.4387 302.6930 14.76442007414919"}}, "geometry": {"type": "Point", "coordinates": [-116.66096565650203, 67.7274620758764]}}, {"type": "Feature", "properties": {"norad_id": 43437, "name": "SENTINEL-3B", "group": "resource", "lat": -10.992504742159587, "lon": -131.2741221619787, "alt_km": 806.8282469090345, "timestamp": "2025-12-11T05:00:25.968681+00:00", "meta": {"OBJECT_NAME": "SENTINEL-3B", "OBJECT_ID": "2018-039A", "EPOCH": "2025-12-10T21:22:56.971488", "MEAN_MOTION": 14.26741746, "ECCENTRICITY": 0.00015569, "INCLINATION": 98.6269, "RA_OF_ASC_NODE": 50.1026, "ARG_OF_PERICENTER": 104.764, "MEAN_ANOMALY": 255.3713, "EPHEMERIS_TYPE": 0, "CLASSIFICATION_TYPE": "U", "NORAD_CAT_ID": 43437, "ELEMENT_SET_NO": 999, "REV_AT_EPOCH": 39727, "BSTAR": 0.00011250517, "MEAN_MOTION_DOT": 2.29e-06, "MEAN_MOTION_DDOT": 0}, "tle": {"line1": "1 43437U 18039A   25344.89093717  .00000229  00000+0  11251-3 0  9999", "line2": "2 43437  98.6269  50.1026 0001556 104.7640 255.3713 14.26741746397272"}}, "geometry": {"type": "Point", "coordinates": [-131.2741221619787, -10.992504742159587]}}, {"type": "Feature", "properties": {"norad_id": 43461, "name": "GAOFEN-5 01", "group": "resource", "lat": -5.3175429661199916, "lon": -51.05980073364116, "alt_km": 694.7387627257585, "timestamp": "2025-12-11T05:00:25.968691+00:00", "meta": {"OBJECT_NAME": "GAOFEN-5 01", "OBJECT_ID": "2018-043A", "EPOCH": "2025-12-10T15:52:37.152768", "MEAN_MOTION": 14.6040665, "ECCENTRICITY": 0.00010926, "INCLINATION": 98.4324, "RA_OF_ASC_NODE": 307.5925, "ARG_OF_PERICENTER": 348.2801, "MEAN_ANOMALY": 11.8373, "EPHEMERIS_TYPE": 0, "CLASSIFICATION_TYPE": "U", "NORAD_CAT_ID": 43461, "ELEMENT_SET_NO": 999, "REV_AT_EPOCH": 40417, "BSTAR": 0.00018403532, "MEAN_MOTION_DOT": 8.42e-06, "MEAN_MOTION_DDOT": 0}, "tle": {"line1": "1 43461U 18043A   25344.66154112  .00000842  00000+0  18404-3 0  9991", "line2": "2 43461  98.4324 307.5925 0001092 348.2801  11.8373 14.60406650404170"}}, "geometry": {"type": "Point", "coordinates": [-51.05980073364116, -5.3175429661199916]}}, {"type": "Feature", "properties": {"norad_id": 43484, "name": "GAOFEN-6", "group": "resource", "lat": -78.35970471317906, "lon": -172.2058505169434, "alt_km": 656.6092743058216, "timestamp": "2025-12-11T05:00:25.968701+00:00", "meta": {"OBJECT_NAME": "GAOFEN-6", "OBJECT_ID": "2018-048A", "EPOCH": "2025-12-10T22:56:54.606048", "MEAN_MOTION": 14.76560939, "ECCENTRICITY": 0.00132716, "INCLINATION": 97.8029, "RA_OF_ASC_NODE": 49.2825, "ARG_OF_PERICENTER": 68.8325, "MEAN_ANOMALY": 291.4302, "EPHEMERIS_TYPE": 0, "CLASSIFICATION_TYPE": "U", "NORAD_CAT_ID": 43484, "ELEMENT_SET_NO": 999, "REV_AT_EPOCH": 40561, "BSTAR": 0.00020281863, "MEAN_MOTION_DOT": 1.367e-05, "MEAN_MOTION_DDOT": 0}, "tle": {"line1": "1 43484U 18048A   25344.95618757  .00001367  00000+0  20282-3 0  9993", "line2": "2 43484  97.8029  49.2825 0013271  68.8325 291.4302 14.76560939405613"}}, "geometry": {"type": "Point", "coordinates": [-172.2058505169434, -78.35970471317906]}}, {"type": "Feature", "properties": {"norad_id": 43585, "name": "GAOFEN-11 01", "group": "resource", "lat": 28.000237827427046, "lon": 44.32497291810425, "alt_km": 416.96767934784384, "timestamp": "2025-12-11T05:00:25.968711+00:00", "meta": {"OBJECT_NAME": "GAOFEN-11 01", "OBJECT_ID": "2018-063A", "EPOCH": "2025-12-10T22:41:04.815168", "MEAN_MOTION": 15.49131526, "ECCENTRICITY": 0.00043775, "INCLINATION": 97.1558, "RA_OF_ASC_NODE": 47.8941, "ARG_OF_PERICENTER": 322.6712, "MEAN_ANOMALY": 37.4235, "EPHEMERIS_TYPE": 0, "CLASSIFICATION_TYPE": "U", "NORAD_CAT_ID": 43585, "ELEMENT_SET_NO": 999, "REV_AT_EPOCH": 41114, "BSTAR": 0.00035356628, "MEAN_MOTION_DOT": 0.00019155, "MEAN_MOTION_DDOT": 0}, "tle": {"line1": "1 43585U 18063A   25344.94519462  .00019155  00000+0  35357-3 0  9997", "line2": "2 43585  97.1558  47.8941 0004377 322.6712  37.4235 15.49131526411141"}}, "geometry": {"type": "Point", "coordinates": [44.32497291810425, 28.000237827427046]}}, {"type": "Feature", "properties": {"norad_id": 43613, "name": "ICESAT-2", "group": "resource", "lat": -59.725097861871504, "lon": 56.88485580399475, "alt_km": 487.9947720727996, "timestamp": "2025-12-11T05:00:25.968721+00:00", "meta": {"OBJECT_NAME": "ICESAT-2", "OBJECT_ID": "2018-070A", "EPOCH": "2025-12-10T23:14:50.016480", "MEAN_MOTION": 15.28320955, "ECCENTRICITY": 0.00025553, "INCLINATION": 92.0043, "RA_OF_ASC_NODE": 240.2594, "ARG_OF_PERICENTER": 153.3073, "MEAN_ANOMALY": 206.8308, "EPHEMERIS_TYPE": 0, "CLASSIFICATION_TYPE": "U", "NORAD_CAT_ID": 43613, "ELEMENT_SET_NO": 999, "REV_AT_EPOCH": 40371, "BSTAR": 0.00067673466, "MEAN_MOTION_DOT": 0.00018679, "MEAN_MOTION_DDOT": 0}, "tle": {"line1": "1 43613U 18070A   25344.96863445  .00018679  00000+0  67673-3 0  9998", "line2": "2 43613  92.0043 240.2594 0002555 153.3073 206.8308 15.28320955403714"}}, "geometry": {"type": "Point", "coordinates": [56.88485580399475, -59.725097861871504]}}, {"type": "Feature", "properties": {"norad_id": 43719, "name": "HYSIS", "group": "resource", "lat": -72.90090704302925, "lon": 75.43289974302213, "alt_km": 641.6005518107513, "timestamp": "2025-12-11T05:00:25.968731+00:00", "meta": {"OBJECT_NAME": "HYSIS", "OBJECT_ID": "2018-096A", "EPOCH": "2025-12-10T22:50:55.910400", "MEAN_MOTION": 14.78637269, "ECCENTRICITY": 0.00014853, "INCLINATION": 98.0094, "RA_OF_ASC_NODE": 47.938, "ARG_OF_PERICENTER": 56.0151, "MEAN_ANOMALY": 304.1201, "EPHEMERIS_TYPE": 0, "CLASSIFICATION_TYPE": "U", "NORAD_CAT_ID": 43719, "ELEMENT_SET_NO": 999, "REV_AT_EPOCH": 37960, "BSTAR": 0.00029512157, "MEAN_MOTION_DOT": 2.11e-05, "MEAN_MOTION_DDOT": 0}, "tle": {"line1": "1 43719U 18096A   25344.95203600  .00002110  00000+0  29512-3 0  9996", "line2": "2 43719  98.0094  47.9380 0001485  56.0151 304.1201 14.78637269379602"}}, "geometry": {"type": "Point", "coordinates": [75.43289974302213, -72.90090704302925]}}, {"type": "Feature", "properties": {"norad_id": 43783, "name": "KAZSTSAT", "group": "resource", "lat": 46.94777426270313, "lon": 12.401155721178817, "alt_km": 563.4399504363273, "timestamp": "2025-12-11T05:00:25.968741+00:00", "meta": {"OBJECT_NAME": "KAZSTSAT", "OBJECT_ID": "2018-099AB", "EPOCH": "2025-12-10T22:23:22.416576", "MEAN_MOTION": 14.99344269, "ECCENTRICITY": 0.00059921, "INCLINATION": 97.4559, "RA_OF_ASC_NODE": 20.1955, "ARG_OF_PERICENTER": 337.8308, "MEAN_ANOMALY": 22.2656, "EPHEMERIS_TYPE": 0, "CLASSIFICATION_TYPE": "U", "NORAD_CAT_ID": 43783, "ELEMENT_SET_NO": 999, "REV_AT_EPOCH": 38309, "BSTAR": 0.00018795666, "MEAN_MOTION_DOT": 2.242e-05, "MEAN_MOTION_DDOT": 0}, "tle": {"line1": "1 43783U 18099AB  25344.93289834  .00002242  00000+0  18796-3 0  9999", "line2": "2 43783  97.4559  20.1955 0005992 337.8308  22.2656 14.99344269383092"}}, "geometry": {"type": "Point", "coordinates": [12.401155721178817, 46.94777426270313]}}, {"type": "Feature", "properties": {"norad_id": 43831, "name": "SAUDISAT 5A", "group": "resource", "lat": -44.2417629378234, "lon": 52.63588467477672, "alt_km": 500.36642174453755, "timestamp": "2025-12-11T05:00:25.968751+00:00", "meta": {"OBJECT_NAME": "SAUDISAT 5A", "OBJECT_ID": "2018-102A", "EPOCH": "2025-12-10T22:54:22.874688", "MEAN_MOTION": 15.25619492, "ECCENTRICITY": 0.00118134, "INCLINATION": 97.3353, "RA_OF_ASC_NODE": 45.1796, "ARG_OF_PERICENTER": 81.6671, "MEAN_ANOMALY": 278.5906, "EPHEMERIS_TYPE": 0, "CLASSIFICATION_TYPE": "U", "NORAD_CAT_ID": 43831, "ELEMENT_SET_NO": 999, "REV_AT_EPOCH": 38695, "BSTAR": 0.0003568238, "MEAN_MOTION_DOT": 9.019e-05, "MEAN_MOTION_DDOT": 0}, "tle": {"line1": "1 43831U 18102A   25344.95443142  .00009019  00000+0  35682-3 0  9996", "line2": "2 43831  97.3353  45.1796 0011813  81.6671 278.5906 15.25619492386958"}}, "geometry": {"type": "Point", "coordinates": [52.63588467477672, -44.2417629378234]}}, {"type": "Feature", "properties": {"norad_id": 43833, "name": "SAUDISAT 5B", "group": "resource", "lat": 5.4911995668422175, "lon": 47.454305030328484, "alt_km": 488.3316980830414, "timestamp": "2025-12-11T05:00:25.968761+00:00", "meta": {"OBJECT_NAME": "SAUDISAT 5B", "OBJECT_ID": "2018-102C", "EPOCH": "2025-12-10T22:41:16.505088", "MEAN_MOTION": 15.25972261, "ECCENTRICITY": 0.00125089, "INCLINATION": 97.3447, "RA_OF_ASC_NODE": 47.9061, "ARG_OF_PERICENTER": 84.0407, "MEAN_ANOMALY": 276.2257, "EPHEMERIS_TYPE": 0, "CLASSIFICATION_TYPE": "U", "NORAD_CAT_ID": 43833, "ELEMENT_SET_NO": 999, "REV_AT_EPOCH": 38706, "BSTAR": 0.0003520255, "MEAN_MOTION_DOT": 8.994e-05, "MEAN_MOTION_DDOT": 0}, "tle": {"line1": "1 43833U 18102C   25344.94532992  .00008994  00000+0  35203-3 0  9999", "line2": "2 43833  97.3447  47.9061 0012508  84.0407 276.2257 15.25972261387068"}}, "geometry": {"type": "Point", "coordinates": [47.454305030328484, 5.4911995668422175]}}]}